     2              NAVIGATION DATA                         RINEX VERSION / TYPE
CCRINEXN V1.6.0 UX  CDDIS               05-SEP-16 15:33     PGM / RUN BY / DATE 
IGS BROADCAST EPHEMERIS FILE                                COMMENT             
    0.1024D-07  0.2235D-07 -0.5960D-07 -0.1192D-06          ION ALPHA           
    0.9421D+05  0.9830D+05 -0.1311D+06 -0.5243D+06          ION BETA            
    0.372529029846D-08 0.710542735760D-14   233472     1913 DELTA-UTC: A0,A1,T,W
    17                                                      LEAP SECONDS        
                                                            END OF HEADER       
13 16  9  4  8  0  0.0-0.416790135205D-04-0.227373675443D-11 0.000000000000D+00
    0.330000000000D+02 0.750937500000D+02 0.450625892157D-08-0.254390562121D+01
    0.390969216824D-05 0.402852834668D-02 0.681728124619D-05 0.515368322563D+04
    0.288000000000D+05 0.707805156708D-07-0.183442673553D+01 0.316649675369D-07
    0.970577695657D+00 0.250531250000D+03 0.196649902654D+01-0.806890732008D-08
    0.501449437529D-09 0.100000000000D+01 0.191300000000D+04 0.000000000000D+00
    0.200000000000D+01 0.000000000000D+00-0.111758708954D-07 0.330000000000D+02
    0.216000000000D+05 0.000000000000D+00 0.000000000000D+00 0.000000000000D+00
14 16  9  4  8  0  0.0-0.333064235747D-04-0.193267624127D-11 0.000000000000D+00
    0.570000000000D+02 0.695625000000D+02 0.464162191361D-08-0.114541316824D+01
    0.390969216824D-05 0.893933349289D-02 0.688433647156D-05 0.515405526352D+04
    0.288000000000D+05 0.260770320892D-07-0.187212811962D+01 0.191852450371D-06
    0.963096824140D+00 0.248937500000D+03-0.195242707417D+01-0.820284168128D-08
    0.488948938114D-09 0.100000000000D+01 0.191300000000D+04 0.000000000000D+00
    0.200000000000D+01 0.000000000000D+00-0.931322574616D-08 0.570000000000D+02
    0.216000000000D+05 0.400000000000D+01 0.000000000000D+00 0.000000000000D+00
15 16  9  4  8  0  0.0-0.326003413647D-03-0.147792889038D-11 0.000000000000D+00
    0.340000000000D+02 0.762812500000D+02 0.526557647525D-08-0.145768677492D+01
    0.375881791115D-05 0.840084580705D-02 0.766105949879D-05 0.515365995598D+04
    0.288000000000D+05 0.130385160446D-06-0.201177741195D+01-0.145286321640D-06
    0.930097587921D+00 0.209375000000D+03 0.495785418173D+00-0.842106505688D-08
    0.575738267524D-09 0.100000000000D+01 0.191300000000D+04 0.000000000000D+00
    0.200000000000D+01 0.000000000000D+00-0.107102096081D-07 0.340000000000D+02
    0.216000000000D+05 0.400000000000D+01 0.000000000000D+00 0.000000000000D+00
16 16  9  4  8  0  0.0 0.462541356683D-05 0.193267624127D-11 0.000000000000D+00
    0.980000000000D+02-0.182812500000D+02 0.373765568836D-08 0.186388521407D+00
   -0.920146703720D-06 0.867118698079D-02 0.110920518637D-04 0.515356311798D+04
    0.288000000000D+05 0.447034835815D-07 0.218774796414D+00 0.763684511185D-07
    0.990984212047D+00 0.179406250000D+03 0.388102565298D+00-0.770853537715D-08
   -0.246795994330D-09 0.100000000000D+01 0.191300000000D+04 0.000000000000D+00
    0.280000000000D+01 0.000000000000D+00-0.107102096081D-07 0.980000000000D+02
    0.224100000000D+05 0.400000000000D+01 0.000000000000D+00 0.000000000000D+00
17 16  9  4  8  0  0.0-0.202824827284D-03 0.341060513165D-12 0.000000000000D+00
    0.240000000000D+02 0.665000000000D+02 0.440054037654D-08-0.717178413703D+00
    0.349245965481D-05 0.111312096706D-01 0.690110027790D-05 0.515373877335D+04
    0.288000000000D+05-0.540167093277D-07 0.123890708797D+01 0.178813934326D-06
    0.977126654710D+00 0.257687500000D+03-0.192460355288D+01-0.826963031386D-08
    0.307155662016D-09 0.100000000000D+01 0.191300000000D+04 0.000000000000D+00
    0.200000000000D+01 0.000000000000D+00-0.107102096081D-07 0.240000000000D+02
    0.216000000000D+05 0.000000000000D+00 0.000000000000D+00 0.000000000000D+00
18 16  9  4  8  0  0.0 0.554216094315D-03 0.386535248253D-11 0.000000000000D+00
    0.640000000000D+02-0.483750000000D+02 0.511699885783D-08 0.846384870139D+00
   -0.250525772572D-05 0.172554083401D-01 0.112093985081D-04 0.515371955681D+04
    0.288000000000D+05-0.266358256340D-06-0.303159079907D+01-0.931322574615D-07
    0.925624136578D+00 0.147812500000D+03-0.186124080239D+01-0.858500045687D-08
   -0.295726603914D-09 0.100000000000D+01 0.191300000000D+04 0.000000000000D+00
    0.200000000000D+01 0.000000000000D+00-0.111758708954D-07 0.640000000000D+02
    0.255900000000D+05 0.400000000000D+01 0.000000000000D+00 0.000000000000D+00
20 16  9  4  8  0  0.0 0.433759298176D-03 0.204636307899D-11 0.000000000000D+00
    0.980000000000D+02-0.453437500000D+02 0.498770775805D-08-0.159153783533D+01
   -0.210665166378D-05 0.468592322432D-02 0.108517706394D-04 0.515379564667D+04
    0.288000000000D+05 0.689178705216D-07-0.308322545089D+01 0.670552253723D-07
    0.926924319650D+00 0.147312500000D+03 0.142976937671D+01-0.827213028172D-08
   -0.182507602174D-09 0.100000000000D+01 0.191300000000D+04 0.000000000000D+00
    0.200000000000D+01 0.000000000000D+00-0.838190317154D-08 0.980000000000D+02
    0.216000000000D+05 0.400000000000D+01 0.000000000000D+00 0.000000000000D+00
21 16  9  4  8  0  0.0-0.531479250640D-03-0.568434188608D-12 0.000000000000D+00
    0.670000000000D+02-0.405625000000D+02 0.527307678767D-08 0.180982054707D+01
   -0.268220901489D-05 0.233988929540D-01 0.355951488018D-05 0.515355241775D+04
    0.288000000000D+05 0.106170773506D-06 0.221024433654D+01-0.547617673874D-06
    0.937170312608D+00 0.298406250000D+03-0.176300236285D+01-0.851071164816D-08
   -0.198222542479D-09 0.100000000000D+01 0.191300000000D+04 0.000000000000D+00
    0.200000000000D+01 0.000000000000D+00-0.977888703346D-08 0.670000000000D+02
    0.216000000000D+05 0.400000000000D+01 0.000000000000D+00 0.000000000000D+00
22 16  9  4  8  0  0.0 0.254257116467D-03-0.989075488178D-11 0.000000000000D+00
    0.910000000000D+02-0.298125000000D+02 0.503056668615D-08-0.121681476330D+01
   -0.137649476528D-05 0.749353622086D-02 0.106785446405D-04 0.515374495125D+04
    0.288000000000D+05 0.316649675369D-07-0.303115084840D+01 0.210478901863D-06
    0.923562770896D+00 0.153406250000D+03-0.186916394037D+01-0.834677624816D-08
   -0.953611150304D-10 0.100000000000D+01 0.191300000000D+04 0.000000000000D+00
    0.200000000000D+01 0.000000000000D+00-0.176951289177D-07 0.910000000000D+02
    0.216000000000D+05 0.400000000000D+01 0.000000000000D+00 0.000000000000D+00
23 16  9  4  8  0  0.0-0.188647303730D-03-0.136424205266D-11 0.000000000000D+00
    0.680000000000D+02 0.772812500000D+02 0.496913555587D-08-0.200238678720D+01
    0.363774597645D-05 0.111407252261D-01 0.678375363350D-05 0.515362192154D+04
    0.288000000000D+05 0.856816768646D-07-0.195241208219D+01-0.875443220139D-07
    0.945271433595D+00 0.239062500000D+03-0.253293334501D+01-0.823105714228D-08
    0.607168148133D-09 0.100000000000D+01 0.191300000000D+04 0.000000000000D+00
    0.200000000000D+01 0.000000000000D+00-0.200234353542D-07 0.680000000000D+02
    0.216000000000D+05 0.400000000000D+01 0.000000000000D+00 0.000000000000D+00
24 16  9  4  8  0  0.0-0.226502306759D-04-0.568434188608D-12 0.000000000000D+00
    0.590000000000D+02-0.282500000000D+02 0.529879214453D-08-0.253431151771D+01
   -0.156834721565D-05 0.460460223258D-02 0.399351119995D-05 0.515372462463D+04
    0.288000000000D+05-0.409781932831D-07-0.926733783348D+00-0.113621354103D-06
    0.948127724091D+00 0.297218750000D+03 0.398227314532D+00-0.854892752572D-08
   -0.131076888450D-09 0.100000000000D+01 0.191300000000D+04 0.000000000000D+00
    0.200000000000D+01 0.000000000000D+00 0.232830643654D-08 0.590000000000D+02
    0.216000000000D+05 0.400000000000D+01 0.000000000000D+00 0.000000000000D+00
25 16  9  4  8  0  0.0-0.239417422563D-03-0.693489710102D-11 0.000000000000D+00
    0.250000000000D+02-0.406562500000D+02 0.399123767964D-08 0.162927571337D+01
   -0.206381082535D-05 0.558734149672D-02 0.113956630230D-04 0.515371090317D+04
    0.288000000000D+05-0.143423676491D-06 0.147923615510D+00 0.242143869400D-07
    0.978633107768D+00 0.169343750000D+03 0.791191283881D+00-0.777746681985D-08
   -0.255724937684D-09 0.100000000000D+01 0.191300000000D+04 0.000000000000D+00
    0.200000000000D+01 0.000000000000D+00 0.558793544769D-08 0.250000000000D+02
    0.216000000000D+05 0.400000000000D+01 0.000000000000D+00 0.000000000000D+00
26 16  9  4  8  0  0.0-0.462620984763D-03-0.773070496507D-11 0.000000000000D+00
    0.760000000000D+02-0.366250000000D+02 0.446447167745D-08 0.109617637228D+01
   -0.177323818207D-05 0.939996680245D-03 0.107660889626D-04 0.515357667351D+04
    0.288000000000D+05 0.111758708954D-07 0.137205475982D+00-0.633299350738D-07
    0.960544795735D+00 0.168531250000D+03-0.338736238181D-01-0.799354724904D-08
   -0.285011871889D-09 0.100000000000D+01 0.191300000000D+04 0.000000000000D+00
    0.200000000000D+01 0.000000000000D+00 0.698491930962D-08 0.760000000000D+02
    0.216000000000D+05 0.400000000000D+01 0.000000000000D+00 0.000000000000D+00
27 16  9  4  8  0  0.0 0.134960282594D-03 0.466116034659D-11 0.000000000000D+00
    0.110000000000D+03 0.586250000000D+02 0.430232206613D-08-0.715778092425D+00
    0.296346843243D-05 0.379544531461D-02 0.730715692043D-05 0.515365089226D+04
    0.288000000000D+05 0.689178705216D-07 0.118841167629D+01-0.372529029846D-08
    0.972094601265D+00 0.247031250000D+03 0.346596615517D+00-0.805497837932D-08
    0.245724521127D-09 0.100000000000D+01 0.191300000000D+04 0.000000000000D+00
    0.280000000000D+01 0.000000000000D+00 0.186264514923D-08 0.110000000000D+03
    0.286500000000D+05 0.400000000000D+01 0.000000000000D+00 0.000000000000D+00
